{"type": "FeatureCollection", "features": [ {"type": "Feature", "properties": {"norad_id": 31752, "name": "FENGYUN 1C DEB", "group": "fengyun-1c-debris", "lat": -66.40024852568034, "lon": -136.01661885128783, "alt_km": 827.4624520680845, "timestamp": "2025-12-18T13:51:49.967979+00:00", "meta": {"OBJECT_NAME": "FENGYUN 1C DEB", "OBJECT_ID": "1999-025CFB", "EPOCH": "2025-12-11T23:47:12.432768", "MEAN_MOTION": 13.93026472, "ECCENTRICITY": 0.0355999, "INCLINATION": 98.9768, "RA_OF_ASC_NODE": 58.7916, "ARG_OF_PERICENTER": 335.8941, "MEAN_ANOMALY": 22.5905, "EPHEMERIS_TYPE": 0, "CLASSIFICATION_TYPE": "U", "NORAD_CAT_ID": 31752, "ELEMENT_SET_NO": 999, "REV_AT_EPOCH": 93580, "BSTAR": 0.0016120909, "MEAN_MOTION_DOT": 3.489e-05, "MEAN_MOTION_DDOT": 0}, "tle": {"line1": "1 31752U 99025CFB 25345.99111612  .00003489  00000+0  16121-2 0  9998", "line2": "2 31752  98.9768  58.7916 0355999 335.8941  22.5905 13.93026472935801"}}, "geometry": {"type": "Point", "coordinates": [-136.01661885128783, -66.40024852568034]}}, {"type": "Feature", "properties": {"norad_id": 31753, "name": "FENGYUN 1C DEB", "group": "fengyun-1c-debris", "lat": -25.39217054179014, "lon": 29.676797966736522, "alt_km": 950.239765494257, "timestamp": "2025-12-18T13:51:49.967990+00:00", "meta": {"OBJECT_NAME": "FENGYUN 1C DEB", "OBJECT_ID": "1999-025CFC", "EPOCH": "2025-12-17T20:11:00.383424", "MEAN_MOTION": 14.18644717, "ECCENTRICITY": 0.01593176, "INCLINATION": 98.632, "RA_OF_ASC_NODE": 24.8247, "ARG_OF_PERICENTER": 159.1134, "MEAN_ANOMALY": 14.9909, "EPHEMERIS_TYPE": 0, "CLASSIFICATION_TYPE": "U", "NORAD_CAT_ID": 31753, "ELEMENT_SET_NO": 999, "REV_AT_EPOCH": 96091, "BSTAR": 0.00024755017, "MEAN_MOTION_DOT": 5.4e-06, "MEAN_MOTION_DDOT": 0}, "tle": {"line1": "1 31753U 99025CFC 25351.84097666  .00000540  00000+0  24755-3 0  9990", "line2": "2 31753  98.6320  24.8247 0159317 159.1134  14.9909 14.18644717960916"}}, "geometry": {"type": "Point", "coordinates": [29.676797966736522, -25.39217054179014]}}, {"type": "Feature", "properties": {"norad_id": 31754, "name": "FENGYUN 1C DEB", "group": "fengyun-1c-debris", "lat": -23.309544961504745, "lon": 134.28127322550793, "alt_km": 721.2496967773559, "timestamp": "2025-12-18T13:51:49.968000+00:00", "meta": {"OBJECT_NAME": "FENGYUN 1C DEB", "OBJECT_ID": "1999-025CFD", "EPOCH": "2025-12-17T15:16:40.095552", "MEAN_MOTION": 14.42290627, "ECCENTRICITY": 0.00492891, "INCLINATION": 99.0397, "RA_OF_ASC_NODE": 317.218, "ARG_OF_PERICENTER": 203.0179, "MEAN_ANOMALY": 156.88, "EPHEMERIS_TYPE": 0, "CLASSIFICATION_TYPE": "U", "NORAD_CAT_ID": 31754, "ELEMENT_SET_NO": 999, "REV_AT_EPOCH": 97060, "BSTAR": 0.00073004805, "MEAN_MOTION_DOT": 2.395e-05, "MEAN_MOTION_DDOT": 0}, "tle": {"line1": "1 31754U 99025CFD 25351.63657518  .00002395  00000+0  73005-3 0  9998", "line2": "2 31754  99.0397 317.2180 0049289 203.0179 156.8800 14.42290627970602"}}, "geometry": {"type": "Point", "coordinates": [134.28127322550793, -23.309544961504745]}}, {"type": "Feature", "properties": {"norad_id": 31757, "name": "FENGYUN 1C DEB", "group": "fengyun-1c-debris", "lat": -31.346165409873837, "lon": -170.90997562513274, "alt_km": 998.9444231381967, "timestamp": "2025-12-18T13:51:49.968010+00:00", "meta": {"OBJECT_NAME": "FENGYUN 1C DEB", "OBJECT_ID": "1999-025CFG", "EPOCH": "2025-12-17T19:49:25.959360", "MEAN_MOTION": 14.07924717, "ECCENTRICITY": 0.02178468, "INCLINATION": 98.7684, "RA_OF_ASC_NODE": 13.7538, "ARG_OF_PERICENTER": 69.7779, "MEAN_ANOMALY": 292.667, "EPHEMERIS_TYPE": 0, "CLASSIFICATION_TYPE": "U", "NORAD_CAT_ID": 31757, "ELEMENT_SET_NO": 999, "REV_AT_EPOCH": 63953, "BSTAR": 0.0001279176, "MEAN_MOTION_DOT": 2.28e-06, "MEAN_MOTION_DDOT": 0}, "tle": {"line1": "1 31757U 99025CFG 25351.82599490  .00000228  00000+0  12792-3 0  9995", "line2": "2 31757  98.7684  13.7538 0217846  69.7779 292.6670 14.07924717639537"}}, "geometry": {"type": "Point", "coordinates": [-170.90997562513274, -31.346165409873837]}}, {"type": "Feature", "properties": {"norad_id": 31758, "name": "FENGYUN 1C DEB", "group": "fengyun-1c-debris", "lat": 81.53004702867541, "lon": -70.74855436184585, "alt_km": 524.6633431044302, "timestamp": "2025-12-18T13:51:49.968021+00:00", "meta": {"OBJECT_NAME": "FENGYUN 1C DEB", "OBJECT_ID": "1999-025CFH", "EPOCH": "2025-12-18T06:49:11.004096", "MEAN_MOTION": 14.42146337, "ECCENTRICITY": 0.03175163, "INCLINATION": 98.0598, "RA_OF_ASC_NODE": 1.0624, "ARG_OF_PERICENTER": 73.4213, "MEAN_ANOMALY": 290.1595, "EPHEMERIS_TYPE": 0, "CLASSIFICATION_TYPE": "U", "NORAD_CAT_ID": 31758, "ELEMENT_SET_NO": 999, "REV_AT_EPOCH": 94280, "BSTAR": 0.0017992393, "MEAN_MOTION_DOT": 0.00010863, "MEAN_MOTION_DDOT": 0}, "tle": {"line1": "1 31758U 99025CFH 25352.28415514  .00010863  00000+0  17992-2 0  9993", "line2": "2 31758  98.0598   1.0624 0317516  73.4213 290.1595 14.42146337942800"}}, "geometry": {"type": "Point", "coordinates": [-70.74855436184585, 81.53004702867541]}}, {"type": "Feature", "properties": {"norad_id": 31760, "name": "FENGYUN 1C DEB", "group": "fengyun-1c-debris", "lat": -16.123506495334226, "lon": -92.08658142807813, "alt_km": 759.2649102595178, "timestamp": "2025-12-18T13:51:49.968033+00:00", "meta": {"OBJECT_NAME": "FENGYUN 1C DEB", "OBJECT_ID": "1999-025CFK", "EPOCH": "2025-12-16T05:32:29.741856", "MEAN_MOTION": 14.30191756, "ECCENTRICITY": 0.00529322, "INCLINATION": 99.2541, "RA_OF_ASC_NODE": 88.121, "ARG_OF_PERICENTER": 187.2848, "MEAN_ANOMALY": 172.7569, "EPHEMERIS_TYPE": 0, "CLASSIFICATION_TYPE": "U", "NORAD_CAT_ID": 31760, "ELEMENT_SET_NO": 999, "REV_AT_EPOCH": 96182, "BSTAR": 0.00058644904, "MEAN_MOTION_DOT": 1.493e-05, "MEAN_MOTION_DDOT": 0}, "tle": {"line1": "1 31760U 99025CFK 25350.23089979  .00001493  00000+0  58645-3 0  9991", "line2": "2 31760  99.2541  88.1210 0052932 187.2848 172.7569 14.30191756961828"}}, "geometry": {"type": "Point", "coordinates": [-92.08658142807813, -16.123506495334226]}}, {"type": "Feature", "properties": {"norad_id": 31761, "name": "FENGYUN 1C DEB", "group": "fengyun-1c-debris", "lat": -22.022111045578914, "lon": 32.66555804495492, "alt_km": 636.0252264476767, "timestamp": "2025-12-18T13:51:49.968044+00:00", "meta": {"OBJECT_NAME": "FENGYUN 1C DEB", "OBJECT_ID": "1999-025CFL", "EPOCH": "2025-12-17T11:11:51.453600", "MEAN_MOTION": 14.03524809, "ECCENTRICITY": 0.04715606, "INCLINATION": 98.6341, "RA_OF_ASC_NODE": 215.1294, "ARG_OF_PERICENTER": 250.0722, "MEAN_ANOMALY": 104.9071, "EPHEMERIS_TYPE": 0, "CLASSIFICATION_TYPE": "U", "NORAD_CAT_ID": 31761, "ELEMENT_SET_NO": 999, "REV_AT_EPOCH": 58177, "BSTAR": 0.001481834, "MEAN_MOTION_DOT": 6.273e-05, "MEAN_MOTION_DDOT": 0}, "tle": {"line1": "1 31761U 99025CFL 25351.46656775  .00006273  00000+0  14818-2 0  9996", "line2": "2 31761  98.6341 215.1294 0471560 250.0722 104.9071 14.03524809581772"}}, "geometry": {"type": "Point", "coordinates": [32.66555804495492, -22.022111045578914]}}, {"type": "Feature", "properties": {"norad_id": 31763, "name": "FENGYUN 1C DEB", "group": "fengyun-1c-debris", "lat": -23.33428310955685, "lon": -83.53831036284589, "alt_km": 1419.3792794171077, "timestamp": "2025-12-18T13:51:49.968055+00:00", "meta": {"OBJECT_NAME": "FENGYUN 1C DEB", "OBJECT_ID": "1999-025CFN", "EPOCH": "2025-12-18T06:02:52.476000", "MEAN_MOTION": 13.50341573, "ECCENTRICITY": 0.05466628, "INCLINATION": 98.5211, "RA_OF_ASC_NODE": 99.8891, "ARG_OF_PERICENTER": 55.3206, "MEAN_ANOMALY": 2.5528, "EPHEMERIS_TYPE": 0, "CLASSIFICATION_TYPE": "U", "NORAD_CAT_ID": 31763, "ELEMENT_SET_NO": 999, "REV_AT_EPOCH": 91080, "BSTAR": 0.00049460403, "MEAN_MOTION_DOT": 7.76e-06, "MEAN_MOTION_DDOT": 0}, "tle": {"line1": "1 31763U 99025CFN 25352.25199625  .00000776  00000+0  49460-3 0  9996", "line2": "2 31763  98.5211  99.8891 0546662  55.3206   2.5528 13.50341573910804"}}, "geometry": {"type": "Point", "coordinates": [-83.53831036284589, -23.33428310955685]}}, {"type": "Feature", "properties": {"norad_id": 31766, "name": "FENGYUN 1C DEB", "group": "fengyun-1c-debris", "lat": -76.50131372324952, "lon": 129.96378615429833, "alt_km": 831.408016329975, "timestamp": "2025-12-18T13:51:49.968066+00:00", "meta": {"OBJECT_NAME": "FENGYUN 1C DEB", "OBJECT_ID": "1999-025CFR", "EPOCH": "2025-12-17T05:52:06.498624", "MEAN_MOTION": 14.05281807, "ECCENTRICITY": 0.00733682, "INCLINATION": 98.8161, "RA_OF_ASC_NODE": 348.9454, "ARG_OF_PERICENTER": 278.3877, "MEAN_ANOMALY": 80.8979, "EPHEMERIS_TYPE": 0, "CLASSIFICATION_TYPE": "U", "NORAD_CAT_ID": 31766, "ELEMENT_SET_NO": 999, "REV_AT_EPOCH": 64149, "BSTAR": 4.8529148e-05, "MEAN_MOTION_DOT": 3.7e-07, "MEAN_MOTION_DDOT": 0}, "tle": {"line1": "1 31766U 99025CFR 25351.24451966  .00000037  00000+0  48529-4 0  9992", "line2": "2 31766  98.8161 348.9454 0073368 278.3877  80.8979 14.05281807641495"}}, "geometry": {"type": "Point", "coordinates": [129.96378615429833, -76.50131372324952]}}, {"type": "Feature", "properties": {"norad_id": 31767, "name": "FENGYUN 1C DEB", "group": "fengyun-1c-debris", "lat": -45.40229209499702, "lon": -166.95319362089964, "alt_km": 913.3274739764256, "timestamp": "2025-12-18T13:51:49.968076+00:00", "meta": {"OBJECT_NAME": "FENGYUN 1C DEB", "OBJECT_ID": "1999-025CFS", "EPOCH": "2025-12-17T13:35:29.114880", "MEAN_MOTION": 14.04954958, "ECCENTRICITY": 0.00416916, "INCLINATION": 98.8218, "RA_OF_ASC_NODE": 21.1249, "ARG_OF_PERICENTER": 56.7977, "MEAN_ANOMALY": 96.7272, "EPHEMERIS_TYPE": 0, "CLASSIFICATION_TYPE": "U", "NORAD_CAT_ID": 31767, "ELEMENT_SET_NO": 999, "REV_AT_EPOCH": 94893, "BSTAR": 0.00013393641, "MEAN_MOTION_DOT": 1.74e-06, "MEAN_MOTION_DDOT": 0}, "tle": {"line1": "1 31767U 99025CFS 25351.56630920  .00000174  00000+0  13394-3 0  9990", "line2": "2 31767  98.8218  21.1249 0041691  56.7977  96.7272 14.04954958948938"}}, "geometry": {"type": "Point", "coordinates": [-166.95319362089964, -45.40229209499702]}}]}